IRIDIUM 26              
1 24903U 97043A   25142.49375942  .00000433  00000+0  13904-3 0  9997
2 24903  86.3935 121.4165 0002348  92.9955 267.1511 14.37125126453052
IRIDIUM 22              
1 24907U 97043E   25142.47206182  .00000371  00000+0  12129-3 0  9997
2 24907  86.3942 124.9423 0002367  88.9720 271.1748 14.35940648453087
DUMMY MASS 1            
1 24925U 97048A   25142.50855625  .00000406  00000+0  42294-4 0  9994
2 24925  86.3341 147.2019 0004765 221.8454 138.2407 14.86966450501315
DUMMY MASS 2            
1 24926U 97048B   25142.53373095  .00000394  00000+0  41134-4 0  9992
2 24926  86.3342 148.7920 0005226 239.7625 120.3083 14.86718868501090
IRIDIUM 29              
1 24944U 97051A   25142.57373138  .00000414  00000+0  13446-3 0  9995
2 24944  86.3962 154.6389 0002335  85.2672 274.8792 14.36446597449597
IRIDIUM 33              
1 24946U 97051C   25142.52750029  .00000307  00000+0  10113-3 0  9999
2 24946  86.3877 153.9162 0008820 148.0849 212.0883 14.34878111449060
IRIDIUM 28              
1 24948U 97051E   25142.56389080  .00000349  00000+0  11048-3 0  9994
2 24948  86.3965 152.1747 0002454 101.1215 259.0259 14.37368929450169
IRIDIUM 36              
1 24967U 97056C   25142.53119962  .00000361  00000+0  11388-3 0  9998
2 24967  86.4001 183.7676 0002596  93.7507 266.3987 14.37590284448538
